{
  "updated": "2026-07-14T20:54:50.260Z",
  "capsules": {
    "66664": {
      "name": "SOYUZ-MS 28",
      "kind": "crew",
      "family": "soyuz",
      "phase": "docked",
      "stationKey": "iss",
      "since": "2026-07-03T10:34:14.509Z",
      "distanceKm": 0,
      "altitudeKm": 427.3,
      "inclinationDeg": 51.631,
      "l1": "1 66664U 25275A   26195.41159911  .00003993  00000+0  80585-4 0  9996",
      "l2": "2 66664  51.6306 165.3606 0006702 294.7447  65.2843 15.49007257646161"
    },
    "67796": {
      "name": "CREW DRAGON 12",
      "kind": "crew",
      "family": "dragon",
      "phase": "docked",
      "stationKey": "iss",
      "since": "2026-07-03T10:34:14.509Z",
      "distanceKm": 0,
      "altitudeKm": 427.3,
      "inclinationDeg": 51.631,
      "l1": "1 67796U 26031A   26195.41159911  .00003993  00000+0  80585-4 0  9994",
      "l2": "2 67796  51.6306 165.3606 0006702 294.7447  65.2843 15.49007257575855"
    },
    "68319": {
      "name": "PROGRESS-MS 33",
      "kind": "cargo",
      "family": "progress",
      "phase": "docked",
      "stationKey": "iss",
      "since": "2026-07-10T20:18:26.588Z",
      "distanceKm": 0,
      "altitudeKm": 427.3,
      "inclinationDeg": 51.631,
      "l1": "1 68319U 26058A   26195.41159911  .00003993  00000+0  80585-4 0  9995",
      "l2": "2 68319  51.6306 165.3606 0006702 294.7447  65.2843 15.49007257663899"
    },
    "68689": {
      "name": "CYGNUS NG-24",
      "kind": "cargo",
      "family": "cygnus",
      "phase": "docked",
      "stationKey": "iss",
      "since": "2026-07-10T20:18:26.588Z",
      "distanceKm": 0,
      "altitudeKm": 427.3,
      "inclinationDeg": 51.631,
      "l1": "1 68689U 26079A   26195.41159911  .00003993  00000+0  80585-4 0  9998",
      "l2": "2 68689  51.6306 165.3606 0006702 294.7447  65.2843 15.49007257575947"
    },
    "68837": {
      "name": "PROGRESS-MS 34",
      "kind": "cargo",
      "family": "progress",
      "phase": "docked",
      "stationKey": "iss",
      "since": "2026-07-10T20:18:26.588Z",
      "distanceKm": 0,
      "altitudeKm": 427.3,
      "inclinationDeg": 51.631,
      "l1": "1 68837U 26093A   26195.41159911  .00003993  00000+0  80585-4 0  9999",
      "l2": "2 68837  51.6306 165.3606 0006702 294.7447  65.2843 15.49007257575975"
    },
    "69049": {
      "name": "TIANZHOU-10",
      "kind": "cargo",
      "family": "tianzhou",
      "phase": "docked",
      "stationKey": "css",
      "since": "2026-07-10T20:18:26.588Z",
      "distanceKm": 0,
      "altitudeKm": 402.6,
      "inclinationDeg": 41.467,
      "l1": "1 69049U 26102A   26195.57396866  .00000755  00000+0  14022-4 0  9991",
      "l2": "2 69049  41.4673 155.6004 0002207 299.8748  60.1871 15.58083657296899"
    },
    "69180": {
      "name": "SHENZHOU-23 (SZ-23)",
      "kind": "crew",
      "family": "shenzhou",
      "phase": "docked",
      "stationKey": "css",
      "since": "2026-07-03T10:34:14.509Z",
      "distanceKm": 0,
      "altitudeKm": 402.6,
      "inclinationDeg": 41.467,
      "l1": "1 69180U 26113A   26195.57396866  .00000755  00000+0  14022-4 0  9999",
      "l2": "2 69180  41.4673 155.6004 0002207 299.8748  60.1871 15.58083657296705"
    }
  },
  "events": [
    {
      "id": "68319",
      "name": "PROGRESS-MS 33",
      "kind": "cargo",
      "family": "progress",
      "stationKey": "iss",
      "event": "launched",
      "at": "2026-07-10T20:18:26.588Z"
    },
    {
      "id": "68689",
      "name": "CYGNUS NG-24",
      "kind": "cargo",
      "family": "cygnus",
      "stationKey": "iss",
      "event": "launched",
      "at": "2026-07-10T20:18:26.588Z"
    },
    {
      "id": "68837",
      "name": "PROGRESS-MS 34",
      "kind": "cargo",
      "family": "progress",
      "stationKey": "iss",
      "event": "launched",
      "at": "2026-07-10T20:18:26.588Z"
    },
    {
      "id": "69049",
      "name": "TIANZHOU-10",
      "kind": "cargo",
      "family": "tianzhou",
      "stationKey": "css",
      "event": "launched",
      "at": "2026-07-10T20:18:26.588Z"
    }
  ]
}
